COSMOS 2251 DEB         
1 33912U 93036DR  17345.75151101  .00000482  00000-0  16202-3 0  9998
2 33912  74.0391 213.4486 0015609 286.1887 139.4675 14.39740769462965
